[{"OBJECT_NAME":"STARLINK-4278","OBJECT_ID":"2022-083BC","EPOCH":"2026-03-09T10:55:33.298464","MEAN_MOTION":15.08842599,"ECCENTRICITY":0.00014936,"INCLINATION":53.2175,"RA_OF_ASC_NODE":140.166,"ARG_OF_PERICENTER":93.1625,"MEAN_ANOMALY":266.9538,"EPHEMERIS_TYPE":0,"CLASSIFICATION_TYPE":"U","NORAD_CAT_ID":53182,"ELEMENT_SET_NO":999,"REV_AT_EPOCH":20166,"BSTAR":4.2861899e-5,"MEAN_MOTION_DOT":3.94e-6,"MEAN_MOTION_DDOT":0},{"OBJECT_NAME":"USA 40 R\/B DEB","OBJECT_ID":"1989-061AU","EPOCH":"2026-03-09T09:04:23.387808","MEAN_MOTION":9.46116113,"ECCENTRICITY":0.27143804,"INCLINATION":57.0381,"RA_OF_ASC_NODE":44.9661,"ARG_OF_PERICENTER":109.9858,"MEAN_ANOMALY":281.1504,"EPHEMERIS_TYPE":0,"CLASSIFICATION_TYPE":"U","NORAD_CAT_ID":23372,"ELEMENT_SET_NO":999,"REV_AT_EPOCH":23393,"BSTAR":0.0058520408,"MEAN_MOTION_DOT":9.685e-5,"MEAN_MOTION_DDOT":0}]
